[{"OBJECT_NAME":"SKYSAT-A","OBJECT_ID":"2013-066C","EPOCH":"2026-03-09T23:11:31.147872","MEAN_MOTION":15.12354605,"ECCENTRICITY":0.00202509,"INCLINATION":97.395,"RA_OF_ASC_NODE":121.5014,"ARG_OF_PERICENTER":299.3966,"MEAN_ANOMALY":60.5243,"EPHEMERIS_TYPE":0,"CLASSIFICATION_TYPE":"U","NORAD_CAT_ID":39418,"ELEMENT_SET_NO":999,"REV_AT_EPOCH":67348,"BSTAR":0.0002547658,"MEAN_MOTION_DOT":4.374e-5,"MEAN_MOTION_DDOT":0},{"OBJECT_NAME":"STARLINK-3592","OBJECT_ID":"2022-017AK","EPOCH":"2026-03-09T22:49:38.137440","MEAN_MOTION":15.08833106,"ECCENTRICITY":0.00014645,"INCLINATION":53.2185,"RA_OF_ASC_NODE":347.9452,"ARG_OF_PERICENTER":82.028,"MEAN_ANOMALY":278.0878,"EPHEMERIS_TYPE":0,"CLASSIFICATION_TYPE":"U","NORAD_CAT_ID":51801,"ELEMENT_SET_NO":999,"REV_AT_EPOCH":22396,"BSTAR":4.2285288e-5,"MEAN_MOTION_DOT":3.85e-6,"MEAN_MOTION_DDOT":0}]
